{"type": "FeatureCollection", "features": [ {"type": "Feature", "properties": {"norad_id": 66468, "name": "STARLINK-35331", "group": "last-30-days", "lat": -31.012998231919706, "lon": 86.77218826603601, "alt_km": 386.24040706868345, "timestamp": "2025-12-03T04:52:28.420324+00:00", "meta": {"OBJECT_NAME": "STARLINK-35331", "OBJECT_ID": "2025-262N", "EPOCH": "2025-12-02T20:00:03.000384", "MEAN_MOTION": 15.62734004, "ECCENTRICITY": 0.0001704, "INCLINATION": 42.9997, "RA_OF_ASC_NODE": 129.1491, "ARG_OF_PERICENTER": 282.7744, "MEAN_ANOMALY": 106.6981, "EPHEMERIS_TYPE": 0, "CLASSIFICATION_TYPE": "U", "NORAD_CAT_ID": 66468, "ELEMENT_SET_NO": 999, "REV_AT_EPOCH": 404, "BSTAR": -0.025298, "MEAN_MOTION_DOT": -0.02046698, "MEAN_MOTION_DDOT": 0}, "tle": {"line1": "1 66468U 25262N   25336.83336806 -.02046698  00000+0 -25298-1 0  9996", "line2": "2 66468  42.9997 129.1491 0001704 282.7744 106.6981 15.62734004  4046"}}, "geometry": {"type": "Point", "coordinates": [86.77218826603601, -31.012998231919706]}}, {"type": "Feature", "properties": {"norad_id": 66469, "name": "STARLINK-35451", "group": "last-30-days", "lat": -27.900994493477896, "lon": 92.30729461242194, "alt_km": 386.09458582507614, "timestamp": "2025-12-03T04:52:28.420334+00:00", "meta": {"OBJECT_NAME": "STARLINK-35451", "OBJECT_ID": "2025-262P", "EPOCH": "2025-12-02T20:00:03.000384", "MEAN_MOTION": 15.62733548, "ECCENTRICITY": 0.0001698, "INCLINATION": 42.9998, "RA_OF_ASC_NODE": 129.1342, "ARG_OF_PERICENTER": 283.8545, "MEAN_ANOMALY": 111.37, "EPHEMERIS_TYPE": 0, "CLASSIFICATION_TYPE": "U", "NORAD_CAT_ID": 66469, "ELEMENT_SET_NO": 999, "REV_AT_EPOCH": 404, "BSTAR": -0.025304, "MEAN_MOTION_DOT": -0.02047108, "MEAN_MOTION_DDOT": 0}, "tle": {"line1": "1 66469U 25262P   25336.83336806 -.02047108  00000+0 -25304-1 0  9992", "line2": "2 66469  42.9998 129.1342 0001698 283.8545 111.3700 15.62733548  4040"}}, "geometry": {"type": "Point", "coordinates": [92.30729461242194, -27.900994493477896]}}, {"type": "Feature", "properties": {"norad_id": 66470, "name": "STARLINK-35655", "group": "last-30-days", "lat": -30.000968875368077, "lon": 88.65692338186064, "alt_km": 386.16281317566063, "timestamp": "2025-12-03T04:52:28.420344+00:00", "meta": {"OBJECT_NAME": "STARLINK-35655", "OBJECT_ID": "2025-262Q", "EPOCH": "2025-12-02T20:00:03.000384", "MEAN_MOTION": 15.62738158, "ECCENTRICITY": 0.0001738, "INCLINATION": 42.9998, "RA_OF_ASC_NODE": 129.1446, "ARG_OF_PERICENTER": 285.0924, "MEAN_ANOMALY": 106.2998, "EPHEMERIS_TYPE": 0, "CLASSIFICATION_TYPE": "U", "NORAD_CAT_ID": 66470, "ELEMENT_SET_NO": 999, "REV_AT_EPOCH": 404, "BSTAR": -0.02544, "MEAN_MOTION_DOT": -0.02057054, "MEAN_MOTION_DDOT": 0}, "tle": {"line1": "1 66470U 25262Q   25336.83336806 -.02057054  00000+0 -25440-1 0  9996", "line2": "2 66470  42.9998 129.1446 0001738 285.0924 106.2998 15.62738158  4041"}}, "geometry": {"type": "Point", "coordinates": [88.65692338186064, -30.000968875368077]}}, {"type": "Feature", "properties": {"norad_id": 66471, "name": "STARLINK-35569", "group": "last-30-days", "lat": -28.96187054641956, "lon": 90.50382950013456, "alt_km": 386.2230190054661, "timestamp": "2025-12-03T04:52:28.420356+00:00", "meta": {"OBJECT_NAME": "STARLINK-35569", "OBJECT_ID": "2025-262R", "EPOCH": "2025-12-02T20:00:03.000384", "MEAN_MOTION": 15.62744742, "ECCENTRICITY": 0.0001651, "INCLINATION": 43.0001, "RA_OF_ASC_NODE": 129.1395, "ARG_OF_PERICENTER": 281.1565, "MEAN_ANOMALY": 112.1503, "EPHEMERIS_TYPE": 0, "CLASSIFICATION_TYPE": "U", "NORAD_CAT_ID": 66471, "ELEMENT_SET_NO": 999, "REV_AT_EPOCH": 404, "BSTAR": -0.025551, "MEAN_MOTION_DOT": -0.0206524, "MEAN_MOTION_DDOT": 0}, "tle": {"line1": "1 66471U 25262R   25336.83336806 -.02065240  00000+0 -25551-1 0  9996", "line2": "2 66471  43.0001 129.1395 0001651 281.1565 112.1503 15.62744742  4048"}}, "geometry": {"type": "Point", "coordinates": [90.50382950013456, -28.96187054641956]}}, {"type": "Feature", "properties": {"norad_id": 66472, "name": "STARLINK-35567", "group": "last-30-days", "lat": -26.814436204513314, "lon": 94.0809015892825, "alt_km": 386.0031237719486, "timestamp": "2025-12-03T04:52:28.420366+00:00", "meta": {"OBJECT_NAME": "STARLINK-35567", "OBJECT_ID": "2025-262S", "EPOCH": "2025-12-02T20:00:03.000384", "MEAN_MOTION": 15.62744174, "ECCENTRICITY": 0.0001706, "INCLINATION": 43, "RA_OF_ASC_NODE": 129.1298, "ARG_OF_PERICENTER": 287.8963, "MEAN_ANOMALY": 109.2457, "EPHEMERIS_TYPE": 0, "CLASSIFICATION_TYPE": "U", "NORAD_CAT_ID": 66472, "ELEMENT_SET_NO": 999, "REV_AT_EPOCH": 404, "BSTAR": -0.02557, "MEAN_MOTION_DOT": -0.02066617, "MEAN_MOTION_DDOT": 0}, "tle": {"line1": "1 66472U 25262S   25336.83336806 -.02066617  00000+0 -25570-1 0  9997", "line2": "2 66472  43.0000 129.1298 0001706 287.8963 109.2457 15.62744174  4040"}}, "geometry": {"type": "Point", "coordinates": [94.0809015892825, -26.814436204513314]}}, {"type": "Feature", "properties": {"norad_id": 66473, "name": "STARLINK-35568", "group": "last-30-days", "lat": -25.70641067638404, "lon": 95.81880858128685, "alt_km": 385.9949740172178, "timestamp": "2025-12-03T04:52:28.420376+00:00", "meta": {"OBJECT_NAME": "STARLINK-35568", "OBJECT_ID": "2025-262T", "EPOCH": "2025-12-02T20:00:03.000384", "MEAN_MOTION": 15.62734439, "ECCENTRICITY": 0.0001698, "INCLINATION": 42.9998, "RA_OF_ASC_NODE": 129.1248, "ARG_OF_PERICENTER": 283.6372, "MEAN_ANOMALY": 115.4226, "EPHEMERIS_TYPE": 0, "CLASSIFICATION_TYPE": "U", "NORAD_CAT_ID": 66473, "ELEMENT_SET_NO": 999, "REV_AT_EPOCH": 404, "BSTAR": -0.025337, "MEAN_MOTION_DOT": -0.0204945, "MEAN_MOTION_DDOT": 0}, "tle": {"line1": "1 66473U 25262T   25336.83336806 -.02049450  00000+0 -25337-1 0  9995", "line2": "2 66473  42.9998 129.1248 0001698 283.6372 115.4226 15.62734439  4044"}}, "geometry": {"type": "Point", "coordinates": [95.81880858128685, -25.70641067638404]}}, {"type": "Feature", "properties": {"norad_id": 66474, "name": "STARLINK-35620", "group": "last-30-days", "lat": -24.577438528964322, "lon": 97.52544017349891, "alt_km": 386.0401775079263, "timestamp": "2025-12-03T04:52:28.420388+00:00", "meta": {"OBJECT_NAME": "STARLINK-35620", "OBJECT_ID": "2025-262U", "EPOCH": "2025-12-02T20:00:03.000384", "MEAN_MOTION": 15.62739224, "ECCENTRICITY": 0.0001567, "INCLINATION": 42.9999, "RA_OF_ASC_NODE": 129.1197, "ARG_OF_PERICENTER": 282.0406, "MEAN_ANOMALY": 118.9355, "EPHEMERIS_TYPE": 0, "CLASSIFICATION_TYPE": "U", "NORAD_CAT_ID": 66474, "ELEMENT_SET_NO": 999, "REV_AT_EPOCH": 404, "BSTAR": -0.025426, "MEAN_MOTION_DOT": -0.02055989, "MEAN_MOTION_DDOT": 0}, "tle": {"line1": "1 66474U 25262U   25336.83336806 -.02055989  00000+0 -25426-1 0  9999", "line2": "2 66474  42.9999 129.1197 0001567 282.0406 118.9355 15.62739224  4043"}}, "geometry": {"type": "Point", "coordinates": [97.52544017349891, -24.577438528964322]}}, {"type": "Feature", "properties": {"norad_id": 66475, "name": "STARLINK-35538", "group": "last-30-days", "lat": -23.429511871778335, "lon": 99.20164865647592, "alt_km": 385.90487875884355, "timestamp": "2025-12-03T04:52:28.420398+00:00", "meta": {"OBJECT_NAME": "STARLINK-35538", "OBJECT_ID": "2025-262V", "EPOCH": "2025-12-02T20:00:03.000384", "MEAN_MOTION": 15.62737037, "ECCENTRICITY": 0.0001713, "INCLINATION": 42.9996, "RA_OF_ASC_NODE": 129.1155, "ARG_OF_PERICENTER": 281.9256, "MEAN_ANOMALY": 120.9694, "EPHEMERIS_TYPE": 0, "CLASSIFICATION_TYPE": "U", "NORAD_CAT_ID": 66475, "ELEMENT_SET_NO": 999, "REV_AT_EPOCH": 404, "BSTAR": -0.025411, "MEAN_MOTION_DOT": -0.02054883, "MEAN_MOTION_DDOT": 0}, "tle": {"line1": "1 66475U 25262V   25336.83336806 -.02054883  00000+0 -25411-1 0  9996", "line2": "2 66475  42.9996 129.1155 0001713 281.9256 120.9694 15.62737037  4048"}}, "geometry": {"type": "Point", "coordinates": [99.20164865647592, -23.429511871778335]}}, {"type": "Feature", "properties": {"norad_id": 66476, "name": "STARLINK-35372", "group": "last-30-days", "lat": -22.26649783860058, "lon": 100.84443429288844, "alt_km": 385.82261719672806, "timestamp": "2025-12-03T04:52:28.420407+00:00", "meta": {"OBJECT_NAME": "STARLINK-35372", "OBJECT_ID": "2025-262W", "EPOCH": "2025-12-02T20:00:03.000384", "MEAN_MOTION": 15.62733028, "ECCENTRICITY": 0.0001646, "INCLINATION": 42.9996, "RA_OF_ASC_NODE": 129.1103, "ARG_OF_PERICENTER": 284.3941, "MEAN_ANOMALY": 120.4157, "EPHEMERIS_TYPE": 0, "CLASSIFICATION_TYPE": "U", "NORAD_CAT_ID": 66476, "ELEMENT_SET_NO": 999, "REV_AT_EPOCH": 393, "BSTAR": -0.025284, "MEAN_MOTION_DOT": -0.02045578, "MEAN_MOTION_DDOT": 0}, "tle": {"line1": "1 66476U 25262W   25336.83336806 -.02045578  00000+0 -25284-1 0  9996", "line2": "2 66476  42.9996 129.1103 0001646 284.3941 120.4157 15.62733028  3937"}}, "geometry": {"type": "Point", "coordinates": [100.84443429288844, -22.26649783860058]}}, {"type": "Feature", "properties": {"norad_id": 66477, "name": "STARLINK-35354", "group": "last-30-days", "lat": -19.887932390950528, "lon": 104.05597541666629, "alt_km": 385.6641859174224, "timestamp": "2025-12-03T04:52:28.420417+00:00", "meta": {"OBJECT_NAME": "STARLINK-35354", "OBJECT_ID": "2025-262X", "EPOCH": "2025-12-02T20:00:03.000384", "MEAN_MOTION": 15.62740967, "ECCENTRICITY": 0.0001602, "INCLINATION": 42.9998, "RA_OF_ASC_NODE": 129.0999, "ARG_OF_PERICENTER": 287.7787, "MEAN_ANOMALY": 120.8664, "EPHEMERIS_TYPE": 0, "CLASSIFICATION_TYPE": "U", "NORAD_CAT_ID": 66477, "ELEMENT_SET_NO": 999, "REV_AT_EPOCH": 404, "BSTAR": -0.025494, "MEAN_MOTION_DOT": -0.02060961, "MEAN_MOTION_DDOT": 0}, "tle": {"line1": "1 66477U 25262X   25336.83336806 -.02060961  00000+0 -25494-1 0  9993", "line2": "2 66477  42.9998 129.0999 0001602 287.7787 120.8664 15.62740967  4049"}}, "geometry": {"type": "Point", "coordinates": [104.05597541666629, -19.887932390950528]}}]}